NORAD_CAT_ID,OBJECT_NAME,OBJECT_TYPE,EPOCH,MEAN_MOTION,ECCENTRICITY,INCLINATION,RA_OF_ASC_NODE,ARG_OF_PERICENTER,MEAN_ANOMALY,BSTAR,MEAN_MOTION_DOT,MEAN_MOTION_DDOT,TLE_LINE0,TLE_LINE1,TLE_LINE2,SEMIMAJOR_AXIS,PERIOD,APOGEE,PERIGEE,DECAYED
49733.0,STARLINK-3252,PAYLOAD,2022-08-03 12:16:46,15.08838714,0.0001521999999999,53.2176,298.6938,69.9812,290.1344,-4.3172e-05,-9.75e-06,0.0,0 STARLINK-3252,1 49733U 21115K   22215.51165238 -.00000975  00000-0 -43172-4 0  9993,2 49733  53.2176 298.6938 0001522  69.9812 290.1344 15.08838714 38102,6917.884,95.438,540.802,538.696,0.0
49733.0,STARLINK-3252,PAYLOAD,2022-08-03 15:27:32,15.088394699999998,0.000153,53.2173,298.0987,71.935,288.1809,-3.6242e-05,-8.65e-06,0.0,0 STARLINK-3252,1 49733U 21115K   22215.64413136 -.00000865  00000-0 -36242-4 0  9998,2 49733  53.2173 298.0987 0001530  71.9350 288.1809 15.08839470 37018,6917.882,95.438,540.805,538.689,0.0
49733.0,STARLINK-3252,PAYLOAD,2022-08-04 10:32:09,15.08845112,0.0001489,53.2175,294.5305,69.9643,290.151,1.1104e-05,-1.11e-06,0.0,0 STARLINK-3252,1 49733U 21115K   22216.43900367 -.00000111  00000-0  11104-4 0  9996,2 49733  53.2175 294.5305 0001489  69.9643 290.1510 15.08845112 38248,6917.865,95.437,540.76,538.7,0.0
49733.0,STARLINK-3252,PAYLOAD,2022-08-04 12:07:33,15.08840869,0.0001412,53.2171,294.2332,67.0441,293.07,-1.7813e-05,-5.71e-06,0.0,0 STARLINK-3252,1 49733U 21115K   22216.50524711 -.00000571  00000-0 -17813-4 0  9993,2 49733  53.2171 294.2332 0001412  67.0441 293.0700 15.08840869 37147,6917.878000000002,95.437,540.72,538.766,0.0
49733.0,STARLINK-3252,PAYLOAD,2022-08-04 16:53:43,15.08832945,0.0001606,53.2172,293.3419,61.6294,298.486,-8.585e-05,-1.654e-05,0.0,0 STARLINK-3252,1 49733U 21115K   22216.70397503 -.00001654  00000-0 -85850-4 0  9991,2 49733  53.2172 293.3419 0001606  61.6294 298.4860 15.08832945 38283,6917.901999999999,95.438,540.878,538.656,0.0
49733.0,STARLINK-3252,PAYLOAD,2022-08-05 11:58:21,15.08832145,0.0001441999999999,53.2168,289.773,65.6919,294.4224,1.106e-05,-1.12e-06,0.0,0 STARLINK-3252,1 49733U 21115K   22217.49885668 -.00000112  00000-0  11060-4 0  9991,2 49733  53.2168 289.7730 0001442  65.6919 294.4224 15.08832145 37291,6917.904,95.438,540.7669999999998,538.7719999999998,0.0
49733.0,STARLINK-3252,PAYLOAD,2022-08-05 13:33:44,15.088327,0.0001448,53.2166,289.4759,67.4241,292.6904,2.5023e-05,1.1e-06,0.0,0 STARLINK-3252,1 49733U 21115K   22217.56509622  .00000110  00000-0  25023-4 0  9993,2 49733  53.2166 289.4759 0001448  67.4241 292.6904 15.08832700 37305,6917.903,95.438,540.769,538.766,0.0
49733.0,STARLINK-3252,PAYLOAD,2022-08-05 21:30:40,15.08834499,0.000147,53.2166,287.9891,65.8122,294.3024,3.1208000000000003e-05,2.09e-06,0.0,0 STARLINK-3252,1 49733U 21115K   22217.89629660  .00000209  00000-0  31208-4 0  9995,2 49733  53.2166 287.9891 0001470  65.8122 294.3024 15.08834499 38467,6917.897,95.438,540.779,538.745,0.0
49733.0,STARLINK-3252,PAYLOAD,2022-08-06 11:49:08,15.08809163,0.0001531999999999,53.2165,285.3126,76.6882,283.4281,0.00046973,7.189e-05,0.0,0 STARLINK-3252,1 49733U 21115K   22218.49245996  .00007189  00000-0  46973-3 0  9996,2 49733  53.2165 285.3126 0001532  76.6882 283.4281 15.08809163 37442,6917.975,95.44,540.899,538.78,0.0
49733.0,STARLINK-3252,PAYLOAD,2022-08-07 05:18:22,15.08840661,0.0001512,53.2165,282.0411,67.3242,292.791,0.00016012,2.261e-05,0.0,0 STARLINK-3252,1 49733U 21115K   22219.22109332  .00002261  00000-0  16012-3 0  9998,2 49733  53.2165 282.0411 0001512  67.3242 292.7910 15.08840661 38663,6917.878000000002,95.438,540.789,538.697,0.0
49733.0,STARLINK-3252,PAYLOAD,2022-08-07 11:39:54,15.08871796,0.0001268,53.2169,280.8506,69.7004,290.4124,-0.00051176,-8.43e-05,0.0,0 STARLINK-3252,1 49733U 21115K   22219.48605219 -.00008430  00000-0 -51176-3 0  9997,2 49733  53.2169 280.8506 0001268  69.7004 290.4124 15.08871796 37594,6917.783,95.436,540.525,538.771,0.0
49733.0,STARLINK-3252,PAYLOAD,2022-08-08 03:33:47,15.08838879,0.0001516,53.2172,277.8771,66.8731,293.2421,6.9363e-05,8.16e-06,0.0,0 STARLINK-3252,1 49733U 21115K   22220.14846191  .00000816  00000-0  69363-4 0  9994,2 49733  53.2172 277.8771 0001516  66.8731 293.2421 15.08838879 38800,6917.884,95.438,540.798,538.7,0.0
49733.0,STARLINK-3252,PAYLOAD,2022-08-08 11:30:42,15.08847074,0.0001489,53.2168,276.3908,65.7947,294.3201,9.0332e-05,1.15e-05,0.0,0 STARLINK-3252,1 49733U 21115K   22220.47965598  .00001150  00000-0  90332-4 0  9995,2 49733  53.2168 276.3908 0001489  65.7947 294.3201 15.08847074 38857,6917.859,95.437,540.754,538.694,0.0
49733.0,STARLINK-3252,PAYLOAD,2022-08-08 21:03:00,15.08851657,0.0001445,53.2167,274.607,65.649,294.4652,0.00012092,1.638e-05,0.0,0 STARLINK-3252,1 49733U 21115K   22220.87709061  .00001638  00000-0  12092-3 0  9997,2 49733  53.2167 274.6070 0001445  65.6490 294.4652 15.08851657 37808,6917.845,95.437,540.7090000000002,538.71,0.0
49733.0,STARLINK-3252,PAYLOAD,2022-08-09 09:46:05,15.08852105,0.0001561999999999,53.216,272.2281,64.5659,295.5494,8.2921e-06,-1.56e-06,0.0,0 STARLINK-3252,1 49733U 21115K   22221.40701068 -.00000156  00000-0  82921-5 0  9991,2 49733  53.2160 272.2281 0001562  64.5659 295.5494 15.08852105 37887,6917.843000000003,95.437,540.789,538.628,0.0
49733.0,STARLINK-3252,PAYLOAD,2022-08-10 03:15:21,15.08836985,0.0001513,53.2156,268.9575,64.4746,295.6403,9.6991e-06,-1.34e-06,0.0,0 STARLINK-3252,1 49733U 21115K   22222.13565996 -.00000134  00000-0  96991-5 0  9998,2 49733  53.2156 268.9575 0001513  64.4746 295.6403 15.08836985 39108,6917.89,95.438,540.8009999999998,538.7080000000002,0.0
49733.0,STARLINK-3252,PAYLOAD,2022-08-10 11:12:16,15.08837012,0.0001464,53.2166,267.4698,66.1681,293.9464,-2.828e-05,-7.38e-06,0.0,0 STARLINK-3252,1 49733U 21115K   22222.46686284 -.00000738  00000-0 -28280-4 0  9994,2 49733  53.2166 267.4698 0001464  66.1681 293.9464 15.08837012 38043,6917.89,95.438,540.7669999999998,538.742,0.0
49733.0,STARLINK-3252,PAYLOAD,2022-08-10 14:23:03,15.08836831,0.0001457,53.2165,266.875,64.6106,295.5036,-3.6169e-05,-8.63e-06,0.0,0 STARLINK-3252,1 49733U 21115K   22222.59934288 -.00000863  00000-0 -36169-4 0  9992,2 49733  53.2165 266.8750 0001457  64.6106 295.5036 15.08836831 38064,6917.89,95.438,540.763,538.747,0.0
49733.0,STARLINK-3252,PAYLOAD,2022-08-11 12:38:26,15.08837574,0.0001472,53.2163,262.712,60.0754,300.0384,5.7008e-05,6.19e-06,0.0,0 STARLINK-3252,1 49733U 21115K   22223.52669926  .00000619  00000-0  57008-4 0  9992,2 49733  53.2163 262.7120 0001472  60.0754 300.0384 15.08837574 38203,6917.888000000001,95.438,540.771,538.734,0.0
49733.0,STARLINK-3252,PAYLOAD,2022-08-11 14:13:49,15.08837837,0.0001475,53.2163,262.4147,60.1873,299.9266,5.8417e-05,6.42e-06,0.0,0 STARLINK-3252,1 49733U 21115K   22223.59293915  .00000642  00000-0  58417-4 0  9991,2 49733  53.2163 262.4147 0001475  60.1873 299.9266 15.08837837 39326,6917.887,95.438,540.7719999999998,538.732,0.0
49733.0,STARLINK-3252,PAYLOAD,2022-08-12 12:29:13,15.08841761,0.0001523,53.2162,258.2517,61.2269,298.8876,0.00014321,1.992e-05,0.0,0 STARLINK-3252,1 49733U 21115K   22224.52029552  .00001992  00000-0  14321-3 0  9993,2 49733  53.2162 258.2517 0001523  61.2269 298.8876 15.08841761 38352,6917.875,95.437,540.794,538.686,0.0
49733.0,STARLINK-3252,PAYLOAD,2022-08-12 18:50:47,15.08830273,0.0001547,53.216,257.0619,59.2863,300.8282,3.3301e-05,2.42e-06,0.0,0 STARLINK-3252,1 49733U 21115K   22224.78526707  .00000242  00000-0  33301-4 0  9992,2 49733  53.2160 257.0619 0001547  59.2863 300.8282 15.08830273 38398,6917.91,95.438,540.845,538.705,0.0
49733.0,STARLINK-3252,PAYLOAD,2022-08-13 01:12:19,15.08832063,0.0001544,53.2166,255.8715,60.2104,299.9042,3.2446e-05,2.28e-06,0.0,0 STARLINK-3252,1 49733U 21115K   22225.05022684  .00000228  00000-0  32446-4 0  9991,2 49733  53.2166 255.8715 0001544  60.2104 299.9042 15.08832063 39543,6917.905,95.438,540.8380000000002,538.702,0.0
49733.0,STARLINK-3252,PAYLOAD,2022-08-13 12:20:01,15.08836214,0.0001551,53.2161,253.7904,58.5785,301.5359,1.3484000000000003e-05,-7.3e-07,0.0,0 STARLINK-3252,1 49733U 21115K   22225.51390604 -.00000073  00000-0  13484-4 0  9992,2 49733  53.2161 253.7904 0001551  58.5785 301.5359 15.08836214 38506,6917.892,95.438,540.83,538.684,0.0
49733.0,STARLINK-3252,PAYLOAD,2022-08-14 01:03:06,15.08839561,0.000151,53.2159,251.4117,58.8967,301.2173,3.6351e-05,2.91e-06,0.0,0 STARLINK-3252,1 49733U 21115K   22226.04382370  .00000291  00000-0  36351-4 0  9991,2 49733  53.2159 251.4117 0001510  58.8967 301.2173 15.08839561 39694,6917.882,95.438,540.7909999999998,538.702,0.0
49733.0,STARLINK-3252,PAYLOAD,2022-08-14 10:35:25,15.08835751,0.0001469,53.2161,249.6271,54.9874,305.1256,-6.6164e-05,-1.341e-05,0.0,0 STARLINK-3252,1 49733U 21115K   22226.44126958 -.00001341  00000-0 -66164-4 0  9997,2 49733  53.2161 249.6271 0001469  54.9874 305.1256 15.08835751 38640,6917.893,95.438,540.775,538.742,0.0
49733.0,STARLINK-3252,PAYLOAD,2022-08-15 10:26:13,15.08825783,0.0001525,53.2154,245.1695,58.2278,301.8863,4.5317e-05,4.33e-06,0.0,0 STARLINK-3252,1 49733U 21115K   22227.43488093  .00000433  00000-0  45317-4 0  9994,2 49733  53.2154 245.1695 0001525  58.2278 301.8863 15.08825783 38798,6917.924,95.438,540.844,538.734,0.0
49733.0,STARLINK-3252,PAYLOAD,2022-08-15 18:23:09,15.08828824,0.0001588,53.2157,243.6807,59.1964,300.9185,1.3644e-05,-7.1e-07,0.0,0 STARLINK-3252,1 49733U 21115K   22227.76608281 -.00000071  00000-0  13644-4 0  9990,2 49733  53.2157 243.6807 0001588  59.1964 300.9185 15.08828824 38842,6917.915,95.438,540.878,538.681,0.0
49733.0,STARLINK-3252,PAYLOAD,2022-08-16 03:55:29,15.08757906,0.0002249,53.2157,241.8965,66.717,293.4059,0.0010286,0.00016084,0.0,0 STARLINK-3252,1 49733U 21115K   22228.16354064  .00016084  00000-0  10286-2 0  9999,2 49733  53.2157 241.8965 0002249  66.7170 293.4059 15.08757906 40015,6918.130999999999,95.443,541.552,538.44,0.0
